[{"OBJECT_NAME":"STARLINK-35999","OBJECT_ID":"2025-286AC","EPOCH":"2026-03-09T22:36:53.272800","MEAN_MOTION":15.30210068,"ECCENTRICITY":0.00018007,"INCLINATION":53.1613,"RA_OF_ASC_NODE":357.3916,"ARG_OF_PERICENTER":127.4777,"MEAN_ANOMALY":232.6388,"EPHEMERIS_TYPE":0,"CLASSIFICATION_TYPE":"U","NORAD_CAT_ID":66951,"ELEMENT_SET_NO":999,"REV_AT_EPOCH":1545,"BSTAR":0.0010571628,"MEAN_MOTION_DOT":0.00031092,"MEAN_MOTION_DDOT":0},{"OBJECT_NAME":"OBJECT BE","OBJECT_ID":"2025-313BE","EPOCH":"2026-03-09T16:43:59.380320","MEAN_MOTION":15.29801687,"ECCENTRICITY":0.00072083,"INCLINATION":97.3989,"RA_OF_ASC_NODE":145.3568,"ARG_OF_PERICENTER":335.3714,"MEAN_ANOMALY":24.7181,"EPHEMERIS_TYPE":0,"CLASSIFICATION_TYPE":"U","NORAD_CAT_ID":67482,"ELEMENT_SET_NO":999,"REV_AT_EPOCH":797,"BSTAR":0.0026504328,"MEAN_MOTION_DOT":0.00077178,"MEAN_MOTION_DDOT":0}]
